[{"OBJECT_NAME":"STARLINK-11524 [DTC]","OBJECT_ID":"2025-019L","EPOCH":"2026-03-09T19:10:16.123872","MEAN_MOTION":15.70795434,"ECCENTRICITY":0.00014499,"INCLINATION":42.9994,"RA_OF_ASC_NODE":305.7034,"ARG_OF_PERICENTER":236.5606,"MEAN_ANOMALY":123.5123,"EPHEMERIS_TYPE":0,"CLASSIFICATION_TYPE":"U","NORAD_CAT_ID":62839,"ELEMENT_SET_NO":999,"REV_AT_EPOCH":6389,"BSTAR":0.0014204464,"MEAN_MOTION_DOT":0.00185592,"MEAN_MOTION_DDOT":0},{"OBJECT_NAME":"SL-16 DEB","OBJECT_ID":"1992-093LF","EPOCH":"2026-03-01T22:50:07.505664","MEAN_MOTION":15.66314523,"ECCENTRICITY":0.0005733,"INCLINATION":71.2496,"RA_OF_ASC_NODE":309.1259,"ARG_OF_PERICENTER":53.7691,"MEAN_ANOMALY":306.4041,"EPHEMERIS_TYPE":0,"CLASSIFICATION_TYPE":"U","NORAD_CAT_ID":39853,"ELEMENT_SET_NO":999,"REV_AT_EPOCH":63666,"BSTAR":0.0026636,"MEAN_MOTION_DOT":0.00285901,"MEAN_MOTION_DDOT":0}]
